[{"OBJECT_NAME":"LEMUR-2-AMANDA-SVANTE","OBJECT_ID":"2021-034B","EPOCH":"2026-03-09T18:37:58.823328","MEAN_MOTION":15.28469003,"ECCENTRICITY":0.00027027,"INCLINATION":97.5829,"RA_OF_ASC_NODE":144.8625,"ARG_OF_PERICENTER":205.4721,"MEAN_ANOMALY":154.6385,"EPHEMERIS_TYPE":0,"CLASSIFICATION_TYPE":"U","NORAD_CAT_ID":48269,"ELEMENT_SET_NO":999,"REV_AT_EPOCH":26584,"BSTAR":0.0011134246,"MEAN_MOTION_DOT":0.00030872,"MEAN_MOTION_DDOT":0},{"OBJECT_NAME":"STARLINK-31723","OBJECT_ID":"2024-074V","EPOCH":"2026-03-09T03:50:56.291136","MEAN_MOTION":15.27587631,"ECCENTRICITY":0.00013702,"INCLINATION":43.0038,"RA_OF_ASC_NODE":346.4895,"ARG_OF_PERICENTER":262.8323,"MEAN_ANOMALY":97.2372,"EPHEMERIS_TYPE":0,"CLASSIFICATION_TYPE":"U","NORAD_CAT_ID":59553,"ELEMENT_SET_NO":999,"REV_AT_EPOCH":10593,"BSTAR":-5.2543731e-5,"MEAN_MOTION_DOT":-1.708e-5,"MEAN_MOTION_DDOT":0}]
