LEMUR-2-AMANDA-SVANTE   
1 48269U 21034B   26068.77637527  .00030872  00000+0  11134-2 0  9996
2 48269  97.5829 144.8625 0002703 205.4721 154.6385 15.28469003265849
STARLINK-31723          
1 59553U 24074V   26068.16037374 -.00001708  00000+0 -52544-4 0  9998
2 59553  43.0038 346.4895 0001370 262.8323  97.2372 15.27587631105936
